[{"OBJECT_NAME":"TIANMU-1 07","OBJECT_ID":"2023-101A","EPOCH":"2026-03-06T13:47:20.454720","MEAN_MOTION":15.29118809,"ECCENTRICITY":0.00046097,"INCLINATION":97.2728,"RA_OF_ASC_NODE":118.5929,"ARG_OF_PERICENTER":142.4105,"MEAN_ANOMALY":217.7458,"EPHEMERIS_TYPE":0,"CLASSIFICATION_TYPE":"U","NORAD_CAT_ID":57399,"ELEMENT_SET_NO":999,"REV_AT_EPOCH":14596,"BSTAR":0.00029794732,"MEAN_MOTION_DOT":8.352e-5,"MEAN_MOTION_DDOT":0},{"OBJECT_NAME":"STARLINK-31511","OBJECT_ID":"2024-068H","EPOCH":"2026-03-09T07:34:28.879392","MEAN_MOTION":15.27576819,"ECCENTRICITY":0.00013745,"INCLINATION":43.0023,"RA_OF_ASC_NODE":36.79,"ARG_OF_PERICENTER":254.748,"MEAN_ANOMALY":105.322,"EPHEMERIS_TYPE":0,"CLASSIFICATION_TYPE":"U","NORAD_CAT_ID":59462,"ELEMENT_SET_NO":999,"REV_AT_EPOCH":10846,"BSTAR":-5.07593e-6,"MEAN_MOTION_DOT":-4.02e-6,"MEAN_MOTION_DDOT":0}]
